start=new Date('2022-12-30T00:00:00.000Z').valueOf();
sats=[{"PERIAPSIS":"538.218","PERIOD":"95.438","REF_FRAME":"TEME","EPHEMERIS_TYPE":"0","CENTER_NAME":"EARTH","MEAN_MOTION":"15.08829174","MEAN_ANOMALY":"322.3499","SEMIMAJOR_AXIS":"6917.913","OBJECT_TYPE":"PAYLOAD","MEAN_MOTION_DOT":"-0.00002956","INCLINATION":"53.2183","MEAN_ELEMENT_THEORY":"SGP4","RA_OF_ASC_NODE":"18.1059","TLE_LINE1":"1 53286U 22086AW  22363.77488597 -.00002956  00000-0 -16772-3 0  9993","TIME_SYSTEM":"UTC","REV_AT_EPOCH":"2501","GP_ID":"221746305","TLE_LINE2":"2 53286  53.2183  18.1059 0002255  37.7651 322.3499 15.08829174 25010","SITE":"AFETR","MEAN_MOTION_DDOT":"0.0000000000000","LAUNCH_DATE":"2022-07-24","NORAD_CAT_ID":"53286","CLASSIFICATION_TYPE":"U","ARG_OF_PERICENTER":"37.7651","FILE":"3725987","COUNTRY_CODE":"US","ELEMENT_SET_NO":"999","RCS_SIZE":"LARGE","OBJECT_NAME":"STARLINK-4165","DECAY_DATE":null,"EPOCH":"2022-12-29T18:35:50.147808","ECCENTRICITY":"0.00022550","APOAPSIS":"541.338","OBJECT_ID":"2022-086AW","BSTAR":"-0.00016772000000"},{"TIME_SYSTEM":"UTC","REV_AT_EPOCH":"2501","GP_ID":"221746508","TLE_LINE2":"2 53287  53.2200  18.1697 0001801  18.8173 341.2885 15.08835043 25015","SITE":"AFETR","MEAN_MOTION_DDOT":"0.0000000000000","LAUNCH_DATE":"2022-07-24","NORAD_CAT_ID":"53287","CLASSIFICATION_TYPE":"U","ARG_OF_PERICENTER":"18.8173","FILE":"3725988","COUNTRY_CODE":"US","RCS_SIZE":"LARGE","ELEMENT_SET_NO":"999","OBJECT_NAME":"STARLINK-4107","DECAY_DATE":null,"EPOCH":"2022-12-29T18:14:37.808448","ECCENTRICITY":"0.00018010","APOAPSIS":"541.006","OBJECT_ID":"2022-086AX","BSTAR":"-0.00013144000000","PERIAPSIS":"538.515","REF_FRAME":"TEME","PERIOD":"95.438","EPHEMERIS_TYPE":"0","CENTER_NAME":"EARTH","MEAN_MOTION":"15.08835043","MEAN_ANOMALY":"341.2885","SEMIMAJOR_AXIS":"6917.896","OBJECT_TYPE":"PAYLOAD","MEAN_MOTION_DOT":"-0.00002379","INCLINATION":"53.2200","RA_OF_ASC_NODE":"18.1697","MEAN_ELEMENT_THEORY":"SGP4","TLE_LINE1":"1 53287U 22086AX  22363.76015982 -.00002379  00000-0 -13144-3 0  9996"},{"ELEMENT_SET_NO":"999","RCS_SIZE":"LARGE","DECAY_DATE":null,"OBJECT_NAME":"STARLINK-4162","EPOCH":"2022-12-29T01:01:17.243616","ECCENTRICITY":"0.00025570","APOAPSIS":"541.551","BSTAR":"-0.00007898200000","OBJECT_ID":"2022-086AY","TIME_SYSTEM":"UTC","GP_ID":"221741566","REV_AT_EPOCH":"2506","MEAN_MOTION_DDOT":"0.0000000000000","LAUNCH_DATE":"2022-07-24","SITE":"AFETR","TLE_LINE2":"2 53288  53.2187  21.3907 0002557  28.6282 331.4850 15.08827973 25060","NORAD_CAT_ID":"53288","CLASSIFICATION_TYPE":"U","ARG_OF_PERICENTER":"28.6282","FILE":"3725790","COUNTRY_CODE":"US","MEAN_MOTION":"15.08827973","MEAN_ANOMALY":"331.4850","SEMIMAJOR_AXIS":"6917.917","OBJECT_TYPE":"PAYLOAD","INCLINATION":"53.2187","MEAN_MOTION_DOT":"-0.00001545","MEAN_ELEMENT_THEORY":"SGP4","RA_OF_ASC_NODE":"21.3907","TLE_LINE1":"1 53288U 22086AY  22363.04256069 -.00001545  00000-0 -78982-4 0  9997","PERIAPSIS":"538.013","REF_FRAME":"TEME","PERIOD":"95.438","EPHEMERIS_TYPE":"0","CENTER_NAME":"EARTH"},{"COUNTRY_CODE":"US","FILE":"3725790","ARG_OF_PERICENTER":"35.9689","CLASSIFICATION_TYPE":"U","NORAD_CAT_ID":"53289","SITE":"AFETR","TLE_LINE2":"2 53289  53.2183  15.1879 0002343  35.9689 324.1461 15.08830018 25174","MEAN_MOTION_DDOT":"0.0000000000000","LAUNCH_DATE":"2022-07-24","GP_ID":"221741357","REV_AT_EPOCH":"2517","TIME_SYSTEM":"UTC","OBJECT_ID":"2022-086AZ","BSTAR":"-0.00013695000000","APOAPSIS":"541.397","ECCENTRICITY":"0.00023430","EPOCH":"2022-12-29T08:04:38.170560","OBJECT_NAME":"STARLINK-4176","DECAY_DATE":null,"RCS_SIZE":"LARGE","ELEMENT_SET_NO":"999","CENTER_NAME":"EARTH","EPHEMERIS_TYPE":"0","PERIOD":"95.438","REF_FRAME":"TEME","PERIAPSIS":"538.155","TLE_LINE1":"1 53289U 22086AZ  22363.33655290 -.00002467  00000-0 -13695-3 0  9992","RA_OF_ASC_NODE":"15.1879","MEAN_ELEMENT_THEORY":"SGP4","MEAN_MOTION_DOT":"-0.00002467","INCLINATION":"53.2183","OBJECT_TYPE":"PAYLOAD","SEMIMAJOR_AXIS":"6917.911","MEAN_ANOMALY":"324.1461","MEAN_MOTION":"15.08830018"},{"OBJECT_TYPE":"PAYLOAD","SEMIMAJOR_AXIS":"6917.898","MEAN_ANOMALY":"320.2563","MEAN_MOTION":"15.08834259","TLE_LINE1":"1 53290U 22086BA  22363.03519617 -.00000935  00000-0 -40621-4 0  9991","RA_OF_ASC_NODE":"21.4272","MEAN_ELEMENT_THEORY":"SGP4","INCLINATION":"53.2194","MEAN_MOTION_DOT":"-0.00000935","REF_FRAME":"TEME","PERIOD":"95.438","PERIAPSIS":"538.157","CENTER_NAME":"EARTH","EPHEMERIS_TYPE":"0","ECCENTRICITY":"0.00023210","EPOCH":"2022-12-29T00:50:40.949088","DECAY_DATE":null,"OBJECT_NAME":"STARLINK-4149","RCS_SIZE":"LARGE","ELEMENT_SET_NO":"999","BSTAR":"-0.00004062100000","OBJECT_ID":"2022-086BA","APOAPSIS":"541.369","NORAD_CAT_ID":"53290","LAUNCH_DATE":"2022-07-24","MEAN_MOTION_DDOT":"0.0000000000000","SITE":"AFETR","TLE_LINE2":"2 53290  53.2194  21.4272 0002321  39.8599 320.2563 15.08834259 25063","REV_AT_EPOCH":"2506","GP_ID":"221740729","TIME_SYSTEM":"UTC","COUNTRY_CODE":"US","FILE":"3725790","ARG_OF_PERICENTER":"39.8599","CLASSIFICATION_TYPE":"U"},{"ARG_OF_PERICENTER":"37.5774","CLASSIFICATION_TYPE":"U","COUNTRY_CODE":"US","FILE":"3725790","REV_AT_EPOCH":"2519","GP_ID":"221740939","TIME_SYSTEM":"UTC","NORAD_CAT_ID":"53291","MEAN_MOTION_DDOT":"0.0000000000000","LAUNCH_DATE":"2022-07-24","TLE_LINE2":"2 53291  53.2187  14.3913 0002128  37.5774 322.5366 15.08828521 25199","SITE":"AFETR","BSTAR":"-0.00012433000000","OBJECT_ID":"2022-086BB","APOAPSIS":"541.253","DECAY_DATE":null,"OBJECT_NAME":"STARLINK-4166","RCS_SIZE":"LARGE","ELEMENT_SET_NO":"999","ECCENTRICITY":"0.00021280","EPOCH":"2022-12-29T10:27:39.020256","EPHEMERIS_TYPE":"0","CENTER_NAME":"EARTH","PERIOD":"95.438","REF_FRAME":"TEME","PERIAPSIS":"538.308","INCLINATION":"53.2187","MEAN_MOTION_DOT":"-0.00002266","TLE_LINE1":"1 53291U 22086BB  22363.43586829 -.00002266  00000-0 -12433-3 0  9993","RA_OF_ASC_NODE":"14.3913","MEAN_ELEMENT_THEORY":"SGP4","MEAN_ANOMALY":"322.5366","MEAN_MOTION":"15.08828521","OBJECT_TYPE":"PAYLOAD","SEMIMAJOR_AXIS":"6917.915"},{"REF_FRAME":"TEME","PERIOD":"95.438","PERIAPSIS":"538.082","CENTER_NAME":"EARTH","EPHEMERIS_TYPE":"0","OBJECT_TYPE":"PAYLOAD","SEMIMAJOR_AXIS":"6917.903","MEAN_ANOMALY":"327.9255","MEAN_MOTION":"15.08832766","TLE_LINE1":"1 53292U 22086BC  22363.49247980 -.00002784  00000-0 -15691-3 0  9996","MEAN_ELEMENT_THEORY":"SGP4","RA_OF_ASC_NODE":"19.3778","MEAN_MOTION_DOT":"-0.00002784","INCLINATION":"53.2211","NORAD_CAT_ID":"53292","SITE":"AFETR","TLE_LINE2":"2 53292  53.2211  19.3778 0002437  32.1886 327.9255 15.08832766 25136","LAUNCH_DATE":"2022-07-24","MEAN_MOTION_DDOT":"0.0000000000000","GP_ID":"221741149","REV_AT_EPOCH":"2513","TIME_SYSTEM":"UTC","COUNTRY_CODE":"US","FILE":"3725790","ARG_OF_PERICENTER":"32.1886","CLASSIFICATION_TYPE":"U","ECCENTRICITY":"0.00024370","EPOCH":"2022-12-29T11:49:10.254720","OBJECT_NAME":"STARLINK-4159","DECAY_DATE":null,"RCS_SIZE":"LARGE","ELEMENT_SET_NO":"999","OBJECT_ID":"2022-086BC","BSTAR":"-0.00015691000000","APOAPSIS":"541.453"},{"ELEMENT_SET_NO":"999","RCS_SIZE":"LARGE","OBJECT_NAME":"STARLINK-4148","DECAY_DATE":null,"EPOCH":"2022-12-29T11:08:06.099936","ECCENTRICITY":"0.00020010","APOAPSIS":"541.183","OBJECT_ID":"2022-086BD","BSTAR":"-0.00005325200000","TIME_SYSTEM":"UTC","GP_ID":"221741776","REV_AT_EPOCH":"2526","SITE":"AFETR","TLE_LINE2":"2 53293  53.2190   9.5098 0002001  38.9453 321.1683 15.08822534 25267","MEAN_MOTION_DDOT":"0.0000000000000","LAUNCH_DATE":"2022-07-24","NORAD_CAT_ID":"53293","CLASSIFICATION_TYPE":"U","ARG_OF_PERICENTER":"38.9453","FILE":"3725790","COUNTRY_CODE":"US","MEAN_MOTION":"15.08822534","MEAN_ANOMALY":"321.1683","SEMIMAJOR_AXIS":"6917.934","OBJECT_TYPE":"PAYLOAD","MEAN_MOTION_DOT":"-0.00001135","INCLINATION":"53.2190","MEAN_ELEMENT_THEORY":"SGP4","RA_OF_ASC_NODE":"9.5098","TLE_LINE1":"1 53293U 22086BD  22363.46395949 -.00001135  00000-0 -53252-4 0  9998","PERIAPSIS":"538.414","REF_FRAME":"TEME","PERIOD":"95.439","EPHEMERIS_TYPE":"0","CENTER_NAME":"EARTH"},{"REV_AT_EPOCH":"2531","GP_ID":"221740311","TIME_SYSTEM":"UTC","NORAD_CAT_ID":"53294","SITE":"AFETR","TLE_LINE2":"2 53294  53.2192   9.3531 0002188  37.0849 323.0294 15.08830772 25313","MEAN_MOTION_DDOT":"0.0000000000000","LAUNCH_DATE":"2022-07-24","ARG_OF_PERICENTER":"37.0849","CLASSIFICATION_TYPE":"U","COUNTRY_CODE":"US","FILE":"3725790","OBJECT_NAME":"STARLINK-4146","DECAY_DATE":null,"RCS_SIZE":"LARGE","ELEMENT_SET_NO":"999","ECCENTRICITY":"0.00021880","EPOCH":"2022-12-29T11:55:47.826048","OBJECT_ID":"2022-086BE","BSTAR":"-0.00019359000000","APOAPSIS":"541.287","REF_FRAME":"TEME","PERIOD":"95.438","PERIAPSIS":"538.260","EPHEMERIS_TYPE":"0","CENTER_NAME":"EARTH","MEAN_ANOMALY":"323.0294","MEAN_MOTION":"15.08830772","OBJECT_TYPE":"PAYLOAD","SEMIMAJOR_AXIS":"6917.909","MEAN_MOTION_DOT":"-0.00003367","INCLINATION":"53.2192","TLE_LINE1":"1 53294U 22086BE  22363.49708132 -.00003367  00000-0 -19359-3 0  9992","RA_OF_ASC_NODE":"9.3531","MEAN_ELEMENT_THEORY":"SGP4"},{"OBJECT_TYPE":"PAYLOAD","SEMIMAJOR_AXIS":"6917.914","MEAN_ANOMALY":"338.6299","MEAN_MOTION":"15.08829103","TLE_LINE1":"1 53388U 22097A   22363.36823387 -.00004076  00000-0 -23817-3 0  9996","MEAN_ELEMENT_THEORY":"SGP4","RA_OF_ASC_NODE":"319.9583","MEAN_MOTION_DOT":"-0.00004076","INCLINATION":"53.2185","PERIOD":"95.438","REF_FRAME":"TEME","PERIAPSIS":"537.840","CENTER_NAME":"EARTH","EPHEMERIS_TYPE":"0","ECCENTRICITY":"0.00028030","EPOCH":"2022-12-29T08:50:15.406368","OBJECT_NAME":"STARLINK-4522","DECAY_DATE":null,"RCS_SIZE":"LARGE","ELEMENT_SET_NO":"999","OBJECT_ID":"2022-097A","BSTAR":"-0.00023817000000","APOAPSIS":"541.718","NORAD_CAT_ID":"53388","SITE":"AFETR","TLE_LINE2":"2 53388  53.2185 319.9583 0002803  21.4811 338.6299 15.08829103 22776","LAUNCH_DATE":"2022-08-10","MEAN_MOTION_DDOT":"0.0000000000000","GP_ID":"221741783","REV_AT_EPOCH":"2277","TIME_SYSTEM":"UTC","COUNTRY_CODE":"US","FILE":"3725790","ARG_OF_PERICENTER":"21.4811","CLASSIFICATION_TYPE":"U"}];
